{"type": "FeatureCollection", "features": [ {"type": "Feature", "properties": {"norad_id": 51444, "name": "CSG-2", "group": "resource", "lat": -54.81169145049403, "lon": -28.526749757233926, "alt_km": 630.4663698008471, "timestamp": "2025-12-07T09:35:09.449887+00:00", "meta": {"OBJECT_NAME": "CSG-2", "OBJECT_ID": "2022-008A", "EPOCH": "2025-12-06T22:48:18.336672", "MEAN_MOTION": 14.82154393, "ECCENTRICITY": 0.00014934, "INCLINATION": 97.8814, "RA_OF_ASC_NODE": 162.3607, "ARG_OF_PERICENTER": 88.3402, "MEAN_ANOMALY": 271.7982, "EPHEMERIS_TYPE": 0, "CLASSIFICATION_TYPE": "U", "NORAD_CAT_ID": 51444, "ELEMENT_SET_NO": 999, "REV_AT_EPOCH": 20811, "BSTAR": 0.00011331697, "MEAN_MOTION_DOT": 8.5e-06, "MEAN_MOTION_DDOT": 0}, "tle": {"line1": "1 51444U 22008A   25340.95021223  .00000850  00000+0  11332-3 0  9993", "line2": "2 51444  97.8814 162.3607 0001493  88.3402 271.7982 14.82154393208112"}}, "geometry": {"type": "Point", "coordinates": [-28.526749757233926, -54.81169145049403]}}, {"type": "Feature", "properties": {"norad_id": 52912, "name": "GAOFEN-12 03", "group": "resource", "lat": -21.139492763423142, "lon": 45.81399183823902, "alt_km": 636.980896010964, "timestamp": "2025-12-07T09:35:09.449897+00:00", "meta": {"OBJECT_NAME": "GAOFEN-12 03", "OBJECT_ID": "2022-069A", "EPOCH": "2025-12-06T22:56:27.901536", "MEAN_MOTION": 14.79588063, "ECCENTRICITY": 0.00023055, "INCLINATION": 97.8489, "RA_OF_ASC_NODE": 228.4383, "ARG_OF_PERICENTER": 72.1766, "MEAN_ANOMALY": 287.9697, "EPHEMERIS_TYPE": 0, "CLASSIFICATION_TYPE": "U", "NORAD_CAT_ID": 52912, "ELEMENT_SET_NO": 999, "REV_AT_EPOCH": 18618, "BSTAR": 0.00029246904, "MEAN_MOTION_DOT": 2.14e-05, "MEAN_MOTION_DDOT": 0}, "tle": {"line1": "1 52912U 22069A   25340.95587849  .00002140  00000+0  29247-3 0  9990", "line2": "2 52912  97.8489 228.4383 0002305  72.1766 287.9697 14.79588063186188"}}, "geometry": {"type": "Point", "coordinates": [45.81399183823902, -21.139492763423142]}}, {"type": "Feature", "properties": {"norad_id": 54754, "name": "SWOT", "group": "resource", "lat": -73.7453879305278, "lon": 163.13182516326094, "alt_km": 900.50669221518, "timestamp": "2025-12-07T09:35:09.449908+00:00", "meta": {"OBJECT_NAME": "SWOT", "OBJECT_ID": "2022-173A", "EPOCH": "2025-12-06T22:03:41.612832", "MEAN_MOTION": 14.00173395, "ECCENTRICITY": 3.504e-05, "INCLINATION": 77.61, "RA_OF_ASC_NODE": 294.8472, "ARG_OF_PERICENTER": 129.5463, "MEAN_ANOMALY": 230.572, "EPHEMERIS_TYPE": 0, "CLASSIFICATION_TYPE": "U", "NORAD_CAT_ID": 54754, "ELEMENT_SET_NO": 999, "REV_AT_EPOCH": 15224, "BSTAR": 0.00011884159, "MEAN_MOTION_DOT": 1.73e-06, "MEAN_MOTION_DDOT": 0}, "tle": {"line1": "1 54754U 22173A   25340.91923163  .00000173  00000+0  11884-3 0  9993", "line2": "2 54754  77.6100 294.8472 0000350 129.5463 230.5720 14.00173395152248"}}, "geometry": {"type": "Point", "coordinates": [163.13182516326094, -73.7453879305278]}}, {"type": "Feature", "properties": {"norad_id": 57654, "name": "GAOFEN-12 04", "group": "resource", "lat": 8.85626824315699, "lon": -104.00410539264502, "alt_km": 631.6807373715201, "timestamp": "2025-12-07T09:35:09.449918+00:00", "meta": {"OBJECT_NAME": "GAOFEN-12 04", "OBJECT_ID": "2023-123A", "EPOCH": "2025-12-06T22:11:05.660448", "MEAN_MOTION": 14.79673638, "ECCENTRICITY": 0.00014054, "INCLINATION": 97.912, "RA_OF_ASC_NODE": 256.7698, "ARG_OF_PERICENTER": 72.7515, "MEAN_ANOMALY": 287.385, "EPHEMERIS_TYPE": 0, "CLASSIFICATION_TYPE": "U", "NORAD_CAT_ID": 57654, "ELEMENT_SET_NO": 999, "REV_AT_EPOCH": 12419, "BSTAR": 0.00035471262, "MEAN_MOTION_DOT": 2.611e-05, "MEAN_MOTION_DDOT": 0}, "tle": {"line1": "1 57654U 23123A   25340.92437107  .00002611  00000+0  35471-3 0  9997", "line2": "2 57654  97.9120 256.7698 0001405  72.7515 287.3850 14.79673638124191"}}, "geometry": {"type": "Point", "coordinates": [-104.00410539264502, 8.85626824315699]}}, {"type": "Feature", "properties": {"norad_id": 59065, "name": "PARS 1", "group": "resource", "lat": -48.477760692128975, "lon": -39.265861932111264, "alt_km": 456.9461997463168, "timestamp": "2025-12-07T09:35:09.449929+00:00", "meta": {"OBJECT_NAME": "PARS 1", "OBJECT_ID": "2024-039Q", "EPOCH": "2025-12-06T22:53:16.936800", "MEAN_MOTION": 15.40784171, "ECCENTRICITY": 0.00126908, "INCLINATION": 97.4632, "RA_OF_ASC_NODE": 311.7647, "ARG_OF_PERICENTER": 89.2359, "MEAN_ANOMALY": 271.0342, "EPHEMERIS_TYPE": 0, "CLASSIFICATION_TYPE": "U", "NORAD_CAT_ID": 59065, "ELEMENT_SET_NO": 999, "REV_AT_EPOCH": 9899, "BSTAR": 0.00041373036, "MEAN_MOTION_DOT": 0.00016915, "MEAN_MOTION_DDOT": 0}, "tle": {"line1": "1 59065U 24039Q   25340.95366825  .00016915  00000+0  41373-3 0  9993", "line2": "2 59065  97.4632 311.7647 0012690  89.2359 271.0342 15.40784171 98993"}}, "geometry": {"type": "Point", "coordinates": [-39.265861932111264, -48.477760692128975]}}, {"type": "Feature", "properties": {"norad_id": 59371, "name": "RESURS-P 4", "group": "resource", "lat": -79.81196183258567, "lon": 62.701625009957404, "alt_km": 478.2801843481375, "timestamp": "2025-12-07T09:35:09.449939+00:00", "meta": {"OBJECT_NAME": "RESURS-P 4", "OBJECT_ID": "2024-061A", "EPOCH": "2025-12-06T23:02:12.043968", "MEAN_MOTION": 15.32016998, "ECCENTRICITY": 0.00019321, "INCLINATION": 97.2542, "RA_OF_ASC_NODE": 287.4084, "ARG_OF_PERICENTER": 53.3165, "MEAN_ANOMALY": 306.8254, "EPHEMERIS_TYPE": 0, "CLASSIFICATION_TYPE": "U", "NORAD_CAT_ID": 59371, "ELEMENT_SET_NO": 999, "REV_AT_EPOCH": 9432, "BSTAR": 0.00020393607, "MEAN_MOTION_DOT": 6.228e-05, "MEAN_MOTION_DDOT": 0}, "tle": {"line1": "1 59371U 24061A   25340.95986162  .00006228  00000+0  20394-3 0  9996", "line2": "2 59371  97.2542 287.4084 0001932  53.3165 306.8254 15.32016998 94327"}}, "geometry": {"type": "Point", "coordinates": [62.701625009957404, -79.81196183258567]}}, {"type": "Feature", "properties": {"norad_id": 59625, "name": "LEGION 1", "group": "resource", "lat": 66.30748414948535, "lon": 38.55941004936383, "alt_km": 510.13260459557205, "timestamp": "2025-12-07T09:35:09.449949+00:00", "meta": {"OBJECT_NAME": "LEGION 1", "OBJECT_ID": "2024-081A", "EPOCH": "2025-12-06T22:12:13.383360", "MEAN_MOTION": 15.16392904, "ECCENTRICITY": 0.00043863, "INCLINATION": 97.5219, "RA_OF_ASC_NODE": 55.6138, "ARG_OF_PERICENTER": 342.1215, "MEAN_ANOMALY": 17.9862, "EPHEMERIS_TYPE": 0, "CLASSIFICATION_TYPE": "U", "NORAD_CAT_ID": 59625, "ELEMENT_SET_NO": 999, "REV_AT_EPOCH": 8839, "BSTAR": 0.00037268124, "MEAN_MOTION_DOT": 7.174e-05, "MEAN_MOTION_DDOT": 0}, "tle": {"line1": "1 59625U 24081A   25340.92515490  .00007174  00000+0  37268-3 0  9998", "line2": "2 59625  97.5219  55.6138 0004386 342.1215  17.9862 15.16392904 88390"}}, "geometry": {"type": "Point", "coordinates": [38.55941004936383, 66.30748414948535]}}, {"type": "Feature", "properties": {"norad_id": 59626, "name": "LEGION 2", "group": "resource", "lat": -65.83958383524747, "lon": -140.9608954425133, "alt_km": 522.4675365543344, "timestamp": "2025-12-07T09:35:09.449959+00:00", "meta": {"OBJECT_NAME": "LEGION 2", "OBJECT_ID": "2024-081B", "EPOCH": "2025-12-06T21:24:50.101056", "MEAN_MOTION": 15.16404214, "ECCENTRICITY": 0.00060165, "INCLINATION": 97.5223, "RA_OF_ASC_NODE": 55.668, "ARG_OF_PERICENTER": 317.7918, "MEAN_ANOMALY": 42.2851, "EPHEMERIS_TYPE": 0, "CLASSIFICATION_TYPE": "U", "NORAD_CAT_ID": 59626, "ELEMENT_SET_NO": 999, "REV_AT_EPOCH": 8839, "BSTAR": 0.00042677118, "MEAN_MOTION_DOT": 8.23e-05, "MEAN_MOTION_DDOT": 0}, "tle": {"line1": "1 59626U 24081B   25340.89224654  .00008230  00000+0  42677-3 0  9998", "line2": "2 59626  97.5223  55.6680 0006016 317.7918  42.2851 15.16404214 88395"}}, "geometry": {"type": "Point", "coordinates": [-140.9608954425133, -65.83958383524747]}}, {"type": "Feature", "properties": {"norad_id": 60182, "name": "ALOS-4 (DAICHI-4)", "group": "resource", "lat": -72.12547633078806, "lon": -129.2598570425083, "alt_km": 638.671912275855, "timestamp": "2025-12-07T09:35:09.449970+00:00", "meta": {"OBJECT_NAME": "ALOS-4 (DAICHI-4)", "OBJECT_ID": "2024-123A", "EPOCH": "2025-12-06T21:04:46.101504", "MEAN_MOTION": 14.79465202, "ECCENTRICITY": 0.00010039, "INCLINATION": 97.9228, "RA_OF_ASC_NODE": 75.8094, "ARG_OF_PERICENTER": 133.841, "MEAN_ANOMALY": 226.2884, "EPHEMERIS_TYPE": 0, "CLASSIFICATION_TYPE": "U", "NORAD_CAT_ID": 60182, "ELEMENT_SET_NO": 999, "REV_AT_EPOCH": 7744, "BSTAR": 0.00052544551, "MEAN_MOTION_DOT": 3.874e-05, "MEAN_MOTION_DDOT": 0}, "tle": {"line1": "1 60182U 24123A   25340.87831136  .00003874  00000+0  52545-3 0  9995", "line2": "2 60182  97.9228  75.8094 0001003 133.8410 226.2884 14.79465202 77447"}}, "geometry": {"type": "Point", "coordinates": [-129.2598570425083, -72.12547633078806]}}, {"type": "Feature", "properties": {"norad_id": 60452, "name": "LEGION 3", "group": "resource", "lat": -44.24588098855475, "lon": -124.18405131915678, "alt_km": 522.8444617478444, "timestamp": "2025-12-07T09:35:09.449981+00:00", "meta": {"OBJECT_NAME": "LEGION 3", "OBJECT_ID": "2024-146A", "EPOCH": "2025-12-06T11:52:40.770048", "MEAN_MOTION": 15.15662815, "ECCENTRICITY": 0.00141405, "INCLINATION": 45.0027, "RA_OF_ASC_NODE": 343.6074, "ARG_OF_PERICENTER": 163.9855, "MEAN_ANOMALY": 196.1473, "EPHEMERIS_TYPE": 0, "CLASSIFICATION_TYPE": "U", "NORAD_CAT_ID": 60452, "ELEMENT_SET_NO": 999, "REV_AT_EPOCH": 7278, "BSTAR": 0.00047300959, "MEAN_MOTION_DOT": 8.918e-05, "MEAN_MOTION_DDOT": 0}, "tle": {"line1": "1 60452U 24146A   25340.49491632  .00008918  00000+0  47301-3 0  9999", "line2": "2 60452  45.0027 343.6074 0014140 163.9855 196.1473 15.15662815 72786"}}, "geometry": {"type": "Point", "coordinates": [-124.18405131915678, -44.24588098855475]}}]}